0 FENGYUN 1C DEB
1 30847U 99025AWH 13281.98118473  .00002004  00000-0  14118-2 0  7602
2 30847 098.8210 189.6121 0077608 212.7312 281.2826 13.97731401336542
0 FENGYUN 1C DEB
1 30847U 99025AWH 13282.98322565  .00001949  00000-0  13740-2 0  7610
2 30847 098.8213 190.5749 0077596 209.8842 283.4587 13.97736120336689
0 FENGYUN 1C DEB
1 30847U 99025AWH 13284.98718932  .00001749  00000-0  12358-2 0  7622
2 30847 098.8216 192.5004 0077652 204.2106 287.2452 13.97744037336963
0 FENGYUN 1C DEB
1 30847U 99025AWH 13285.98909763  .00001755  00000-0  12395-2 0  7636
2 30847 098.8217 193.4631 0077708 201.4066 288.7583 13.97748320337103
0 FENGYUN 1C DEB
1 30847U 99025AWH 13286.99118334  .00001801  00000-0  12713-2 0  7641
2 30847 098.8218 194.4262 0077741 198.5660 291.2160 13.97751786337243
0 FENGYUN 1C DEB
1 30847U 99025AWH 13287.99342670  .00002204  00000-0  15485-2 0  7652
2 30847 098.8219 195.3893 0077781 195.7228 294.4806 13.97758100337381
0 FENGYUN 1C DEB
1 30847U 99025AWH 13288.99544220  .00001861  00000-0  13122-2 0  7663
2 30847 098.8217 196.3521 0077837 192.9144 296.5849 13.97762739337525
0 FENGYUN 1C DEB
1 30847U 99025AWH 13289.99794911  .00001741  00000-0  12288-2 0  7678
2 30847 098.8216 197.3157 0077894 190.0757 301.2090 13.97766473337668
0 FENGYUN 1C DEB
1 30847U 99025AWH 13290.99984876  .00001686  00000-0  11914-2 0  7685
2 30847 098.8214 198.2786 0077953 187.2639 302.7674 13.97770352337808
0 FENGYUN 1C DEB
1 30847U 99025AWH 13292.22106090  .00001674  00000-0  11826-2 0  7697
2 30847 098.8206 199.4520 0077997 183.8378 327.9238 13.97774357337970
0 FENGYUN 1C DEB
1 30847U 99025AWH 13293.70006944  .00001770  00000-0  12484-2 0  7708
2 30847 098.8212 200.8738 0078188 179.6369 210.3985 13.97779772338185
0 FENGYUN 1C DEB
1 30847U 99025AWH 13294.70235358  .00001790  00000-0  12623-2 0  7710
2 30847 098.8214 201.8373 0078288 176.8167 213.9482 13.97783668338325
0 FENGYUN 1C DEB
1 30847U 99025AWH 13295.70943785  .00001753  00000-0  12362-2 0  7721
2 30847 098.8207 202.8047 0078312 174.0143 241.6313 13.97786374338461
